OCEANSAT-2              
1 35931U 09051A   26168.91440411 -.00000147  00000+0 -75042-4 0  9998
2 35931  98.2324 155.6933 0015262 233.7497 126.2259 13.99664301879434
PLEIADES 1A             
1 38012U 11076F   26168.95863627  .00000166  00000+0  45518-4 0  9997
2 38012  98.1979 244.0511 0001649  93.3394  19.7688 14.58571063772103
PLEIADES 1B             
1 39019U 12068A   26168.97136287  .00000082  00000+0  27413-4 0  9995
2 39019  98.1950 244.0121 0001684  91.0225 269.1167 14.58560358720969
PATHFINDER 1            
1 41787U 16059E   26168.95465239  .00000433  00000+0  83916-4 0  9994
2 41787  97.8166 168.1963 0027854 201.0695 158.9365 14.67663897519828
NOAA 20 (JPSS-1)        
1 43013U 17073A   26168.91765715  .00000047  00000+0  43237-4 0  9996
2 43013  98.7770 108.3738 0000298 103.3678 256.7532 14.19511863444571
PAZ                     
1 43215U 18020A   26168.96329550  .00001448  00000+0  72144-4 0  9996
2 43215  97.4453 176.3381 0001649  85.7889 274.3534 15.19155372461124
NOVASAR 1               
1 43619U 18071B   26168.92370862  .00000653  00000+0  62701-4 0  9993
2 43619  97.5061  41.2142 0002050  82.5250 277.6205 14.96243942423042
PLEIADES NEO 3          
1 48268U 21034A   26168.92847228  .00000583  00000+0  80676-4 0  9999
2 48268  97.8934 243.6845 0001387  86.1677 273.9694 14.81674507277768
NOAA 21 (JPSS-2)        
1 54234U 22150A   26168.88004819  .00000038  00000+0  38442-4 0  9994
2 54234  98.7059 107.6577 0001709 152.4051 207.7216 14.19565562186640
PARS 1                  
1 59065U 24039Q   26168.96188613  .00009535  00000+0  19867-3 0  9993
2 59065  97.4824 149.9061 0011527 109.3416 250.9081 15.45738234128762
