{
 "generated_at": "2026-06-18T09:14:20Z",
 "sources": [
  {
   "name": "CelesTrak",
   "url": "https://celestrak.org/NORAD/elements/",
   "license": "frei verfügbar; Attribution. Ursprünglich USSPACECOM/Space-Track."
  },
  {
   "name": "GCAT (J. McDowell, planet4589.org)",
   "url": "https://planet4589.org/space/gcat/",
   "license": "CC-BY 4.0"
  }
 ],
 "satellites": [
  {
   "norad": 43013,
   "name": "NOAA 20 (JPSS-1)",
   "intl": "2017-073A",
   "group": "weather",
   "gcat": {
    "class": "C",
    "category": "MET",
    "owner": "GSFC/NOAA",
    "state": "US"
   },
   "omm": {
    "OBJECT_NAME": "NOAA 20 (JPSS-1)",
    "OBJECT_ID": "2017-073A",
    "EPOCH": "2026-06-17T22:01:25.577760",
    "MEAN_MOTION": 14.19511863,
    "ECCENTRICITY": 0.00002986,
    "INCLINATION": 98.777,
    "RA_OF_ASC_NODE": 108.3738,
    "ARG_OF_PERICENTER": 103.3678,
    "MEAN_ANOMALY": 256.7532,
    "EPHEMERIS_TYPE": 0,
    "CLASSIFICATION_TYPE": "U",
    "NORAD_CAT_ID": 43013,
    "ELEMENT_SET_NO": 999,
    "REV_AT_EPOCH": 44457,
    "BSTAR": 0.000043237286,
    "MEAN_MOTION_DOT": 4.7e-7,
    "MEAN_MOTION_DDOT": 0
   }
  },
  {
   "norad": 54234,
   "name": "NOAA 21 (JPSS-2)",
   "intl": "2022-150A",
   "group": "weather",
   "gcat": {
    "class": "C",
    "category": "MET",
    "owner": "GSFC/NOAA",
    "state": "US"
   },
   "omm": {
    "OBJECT_NAME": "NOAA 21 (JPSS-2)",
    "OBJECT_ID": "2022-150A",
    "EPOCH": "2026-06-17T21:07:16.163616",
    "MEAN_MOTION": 14.19565562,
    "ECCENTRICITY": 0.0001709,
    "INCLINATION": 98.7059,
    "RA_OF_ASC_NODE": 107.6577,
    "ARG_OF_PERICENTER": 152.4051,
    "MEAN_ANOMALY": 207.7216,
    "EPHEMERIS_TYPE": 0,
    "CLASSIFICATION_TYPE": "U",
    "NORAD_CAT_ID": 54234,
    "ELEMENT_SET_NO": 999,
    "REV_AT_EPOCH": 18664,
    "BSTAR": 0.000038441886,
    "MEAN_MOTION_DOT": 3.8e-7,
    "MEAN_MOTION_DDOT": 0
   }
  },
  {
   "norad": 43619,
   "name": "NOVASAR 1",
   "intl": "2018-071B",
   "group": "sar",
   "gcat": {
    "class": "B",
    "category": "IMG",
    "owner": "SSTLA",
    "state": "UK"
   },
   "omm": {
    "OBJECT_NAME": "NOVASAR 1",
    "OBJECT_ID": "2018-071B",
    "EPOCH": "2026-06-17T22:10:08.424768",
    "MEAN_MOTION": 14.96243942,
    "ECCENTRICITY": 0.00020506,
    "INCLINATION": 97.5061,
    "RA_OF_ASC_NODE": 41.2142,
    "ARG_OF_PERICENTER": 82.525,
    "MEAN_ANOMALY": 277.6205,
    "EPHEMERIS_TYPE": 0,
    "CLASSIFICATION_TYPE": "U",
    "NORAD_CAT_ID": 43619,
    "ELEMENT_SET_NO": 999,
    "REV_AT_EPOCH": 42304,
    "BSTAR": 0.000062701206,
    "MEAN_MOTION_DOT": 0.00000653,
    "MEAN_MOTION_DDOT": 0
   }
  },
  {
   "norad": 35931,
   "name": "OCEANSAT-2",
   "intl": "2009-051A",
   "group": "resource",
   "gcat": {
    "class": null,
    "category": null,
    "owner": null,
    "state": null
   },
   "omm": {
    "OBJECT_NAME": "OCEANSAT-2",
    "OBJECT_ID": "2009-051A",
    "EPOCH": "2026-06-17T21:56:44.515104",
    "MEAN_MOTION": 13.99664301,
    "ECCENTRICITY": 0.0015262,
    "INCLINATION": 98.2324,
    "RA_OF_ASC_NODE": 155.6933,
    "ARG_OF_PERICENTER": 233.7497,
    "MEAN_ANOMALY": 126.2259,
    "EPHEMERIS_TYPE": 0,
    "CLASSIFICATION_TYPE": "U",
    "NORAD_CAT_ID": 35931,
    "ELEMENT_SET_NO": 999,
    "REV_AT_EPOCH": 87943,
    "BSTAR": -0.000075041544,
    "MEAN_MOTION_DOT": -0.00000147,
    "MEAN_MOTION_DDOT": 0
   }
  },
  {
   "norad": 59065,
   "name": "PARS 1",
   "intl": "2024-039Q",
   "group": "resource",
   "gcat": {
    "class": "C",
    "category": "IMG",
    "owner": "IRSA",
    "state": "IR"
   },
   "omm": {
    "OBJECT_NAME": "PARS 1",
    "OBJECT_ID": "2024-039Q",
    "EPOCH": "2026-06-17T23:05:06.961632",
    "MEAN_MOTION": 15.45738234,
    "ECCENTRICITY": 0.00115279,
    "INCLINATION": 97.4824,
    "RA_OF_ASC_NODE": 149.9061,
    "ARG_OF_PERICENTER": 109.3416,
    "MEAN_ANOMALY": 250.9081,
    "EPHEMERIS_TYPE": 0,
    "CLASSIFICATION_TYPE": "U",
    "NORAD_CAT_ID": 59065,
    "ELEMENT_SET_NO": 999,
    "REV_AT_EPOCH": 12876,
    "BSTAR": 0.0001986728,
    "MEAN_MOTION_DOT": 0.00009535,
    "MEAN_MOTION_DDOT": 0
   }
  },
  {
   "norad": 41787,
   "name": "PATHFINDER 1",
   "intl": "2016-059E",
   "group": "resource",
   "gcat": {
    "class": null,
    "category": null,
    "owner": null,
    "state": null
   },
   "omm": {
    "OBJECT_NAME": "PATHFINDER 1",
    "OBJECT_ID": "2016-059E",
    "EPOCH": "2026-06-17T22:54:41.966496",
    "MEAN_MOTION": 14.67663897,
    "ECCENTRICITY": 0.00278542,
    "INCLINATION": 97.8166,
    "RA_OF_ASC_NODE": 168.1963,
    "ARG_OF_PERICENTER": 201.0695,
    "MEAN_ANOMALY": 158.9365,
    "EPHEMERIS_TYPE": 0,
    "CLASSIFICATION_TYPE": "U",
    "NORAD_CAT_ID": 41787,
    "ELEMENT_SET_NO": 999,
    "REV_AT_EPOCH": 51982,
    "BSTAR": 0.000083915905,
    "MEAN_MOTION_DOT": 0.00000433,
    "MEAN_MOTION_DDOT": 0
   }
  },
  {
   "norad": 43215,
   "name": "PAZ",
   "intl": "2018-020A",
   "group": "sar",
   "gcat": {
    "class": "D",
    "category": "IMG-R",
    "owner": "HISD",
    "state": "E"
   },
   "omm": {
    "OBJECT_NAME": "PAZ",
    "OBJECT_ID": "2018-020A",
    "EPOCH": "2026-06-17T23:07:08.731200",
    "MEAN_MOTION": 15.19155372,
    "ECCENTRICITY": 0.00016496,
    "INCLINATION": 97.4453,
    "RA_OF_ASC_NODE": 176.3381,
    "ARG_OF_PERICENTER": 85.7889,
    "MEAN_ANOMALY": 274.3534,
    "EPHEMERIS_TYPE": 0,
    "CLASSIFICATION_TYPE": "U",
    "NORAD_CAT_ID": 43215,
    "ELEMENT_SET_NO": 999,
    "REV_AT_EPOCH": 46112,
    "BSTAR": 0.000072143645,
    "MEAN_MOTION_DOT": 0.00001448,
    "MEAN_MOTION_DDOT": 0
   }
  },
  {
   "norad": 38012,
   "name": "PLEIADES 1A",
   "intl": "2011-076F",
   "group": "resource",
   "gcat": {
    "class": null,
    "category": "IMG",
    "owner": "CNES/DGA",
    "state": "F"
   },
   "omm": {
    "OBJECT_NAME": "PLEIADES 1A",
    "OBJECT_ID": "2011-076F",
    "EPOCH": "2026-06-17T23:00:26.173728",
    "MEAN_MOTION": 14.58571063,
    "ECCENTRICITY": 0.00016497,
    "INCLINATION": 98.1979,
    "RA_OF_ASC_NODE": 244.0511,
    "ARG_OF_PERICENTER": 93.3394,
    "MEAN_ANOMALY": 19.7688,
    "EPHEMERIS_TYPE": 0,
    "CLASSIFICATION_TYPE": "U",
    "NORAD_CAT_ID": 38012,
    "ELEMENT_SET_NO": 999,
    "REV_AT_EPOCH": 77210,
    "BSTAR": 0.000045517574,
    "MEAN_MOTION_DOT": 0.00000166,
    "MEAN_MOTION_DDOT": 0
   }
  },
  {
   "norad": 39019,
   "name": "PLEIADES 1B",
   "intl": "2012-068A",
   "group": "resource",
   "gcat": {
    "class": null,
    "category": "IMG",
    "owner": "CNES",
    "state": "F"
   },
   "omm": {
    "OBJECT_NAME": "PLEIADES 1B",
    "OBJECT_ID": "2012-068A",
    "EPOCH": "2026-06-17T23:18:45.751968",
    "MEAN_MOTION": 14.58560358,
    "ECCENTRICITY": 0.00016841,
    "INCLINATION": 98.195,
    "RA_OF_ASC_NODE": 244.0121,
    "ARG_OF_PERICENTER": 91.0225,
    "MEAN_ANOMALY": 269.1167,
    "EPHEMERIS_TYPE": 0,
    "CLASSIFICATION_TYPE": "U",
    "NORAD_CAT_ID": 39019,
    "ELEMENT_SET_NO": 999,
    "REV_AT_EPOCH": 72096,
    "BSTAR": 0.000027413106,
    "MEAN_MOTION_DOT": 8.2e-7,
    "MEAN_MOTION_DDOT": 0
   }
  },
  {
   "norad": 48268,
   "name": "PLEIADES NEO 3",
   "intl": "2021-034A",
   "group": "resource",
   "gcat": {
    "class": null,
    "category": "IMG",
    "owner": "ADSTI",
    "state": "F"
   },
   "omm": {
    "OBJECT_NAME": "PLEIADES NEO 3",
    "OBJECT_ID": "2021-034A",
    "EPOCH": "2026-06-17T22:17:00.004992",
    "MEAN_MOTION": 14.81674507,
    "ECCENTRICITY": 0.00013872,
    "INCLINATION": 97.8934,
    "RA_OF_ASC_NODE": 243.6845,
    "ARG_OF_PERICENTER": 86.1677,
    "MEAN_ANOMALY": 273.9694,
    "EPHEMERIS_TYPE": 0,
    "CLASSIFICATION_TYPE": "U",
    "NORAD_CAT_ID": 48268,
    "ELEMENT_SET_NO": 999,
    "REV_AT_EPOCH": 27776,
    "BSTAR": 0.00008067606,
    "MEAN_MOTION_DOT": 0.00000583,
    "MEAN_MOTION_DDOT": 0
   }
  }
 ]
}
